CASSIOPE                
1 39265U 13055A   21047.54072543  .00004810  00000-0  13583-3 0  9999
2 39265  80.9657  58.9477 0651999 308.5980  45.8497 14.31297158382690
ZACUBE-1 (TSHEPISOSAT)  
1 39417U 13066B   21048.22577802  .00000202  00000-0  31569-4 0  9990
2 39417  97.5832  38.8554 0058279 193.9184 166.0426 14.81428380391275
CINEMA-3 (KHUSAT-2)     
1 39426U 13066L   21047.34360726  .00000193  00000-0  37908-4 0  9999
2 39426  97.7403   5.3854 0104135 354.2160   5.7835 14.69627485387868
TRITON-1                
1 39427U 13066M   21048.09661907  .00000310  00000-0  57011-4 0  9996
2 39427  97.7609   1.9140 0113985  16.4494 344.0361 14.68152177387758
DELFI-N3XT              
1 39428U 13066N   21048.31503366  .00000527  00000-0  90771-4 0  9996
2 39428  97.7665   0.5567 0120880  28.3412 332.4299 14.67870259387526
GOMX-1                  
1 39430U 13066Q   21048.42597378  .00000158  00000-0  37174-4 0  9995
2 39430  97.8111 338.4165 0151641 132.5665 228.8446 14.59534412385530
BRITE-PL1 (LEM)         
1 39431U 13066R   21048.49095483  .00000033  00000-0  17950-4 0  9995
2 39431  97.7693 298.4762 0200868 289.8778  68.0870 14.47116494382423
ICUBE-1                 
1 39432U 13066S   21048.01472876  .00000428  00000-0  48447-4 0  9992
2 39432  97.4846  72.3443 0033365  85.1904 275.3124 14.90765764393571
HUMSAT-D                
1 39433U 13066T   21047.52903575  .00000237  00000-0  27953-4 0  9990
2 39433  97.4831  78.5098 0031862  68.0899 292.3704 14.92737809392701
VELOX-PII               
1 39438U 13066Y   21048.21400937  .00000189  00000-0  32078-4 0  9996
2 39438  97.6294  29.3351 0069083 236.3485 123.1125 14.78148815390448
FIRST-MOVE              
1 39439U 13066Z   21048.20938979  .00000461  00000-0  61930-4 0  9990
2 39439  97.5895  40.0216 0064452 192.5382 167.4232 14.82431634391225
CUBEBUG-2 (LO-74)       
1 39440U 13066AA  21048.20583146  .00000243  00000-0  40829-4 0  9996
2 39440  97.6617  23.5926 0078429 265.7164  93.5082 14.76163445389880
NEE-02 KRYSAOR          
1 39441U 13066AB  21048.18209013  .00000162  00000-0  30215-4 0  9990
2 39441  97.6707  20.9631 0080050 276.3179  82.8918 14.75124742389641
FUNCUBE-1 (AO-73)       
1 39444U 13066AE  21048.21529072  .00000287  00000-0  41219-4 0  9991
2 39444  97.5750  41.1816 0057580 184.8656 175.2006 14.82316480390216
HINCUBE                 
1 39445U 13066AF  21048.41213221  .00000230  00000-0  34515-4 0  9999
2 39445  97.5765  41.2256 0057584 185.9170 174.1371 14.82150238389789
UWE-3                   
1 39446U 13066AG  21047.36952843  .00000197  00000-0  32722-4 0  9993
2 39446  97.6242  29.8480 0068504 233.4889 126.0002 14.78696709388613
AIST-1 (RS-41)          
1 39492U 13078C   21048.38617352  .00000172  00000-0  16090-4 0  9996
2 39492  82.4220 340.5159 0018264 274.2922  85.6214 14.87988996387646
SPROUT                  
1 39770U 14029E   21048.26714799  .00000579  00000-0  68852-4 0  9996
2 39770  97.9063 159.7553 0007876 240.9363 119.1109 14.88177983365464
UNISAT-6                
1 40012U 14033C   21048.09729222  .00000186  00000-0  34879-4 0  9996
2 40012  97.6859 256.7631 0056859 290.1214  69.3883 14.74242287358469
BUGSAT-1 (TITA)         
1 40014U 14033E   21048.20459917  .00000296  00000-0  32157-4 0  9991
2 40014  98.0972  23.5807 0030779 200.6214 159.3766 14.95637046363590
DUCHIFAT-1              
1 40021U 14033M   21047.55690042  .00000582  00000-0  64436-4 0  9995
2 40021  97.9630 346.5586 0012170 197.0376 163.0434 14.91181777362260
NANOSATC-BR1            
1 40024U 14033Q   21048.45743387  .00000256  00000-0  32261-4 0  9998
2 40024  97.9438 342.9935 0011484 199.0321 161.0469 14.90305780362241
QB50P1                  
1 40025U 14033R   21048.29649170  .00000294  00000-0  36976-4 0  9995
2 40025  97.9277 338.7230 0011584 208.4446 151.6140 14.89330105362044
DTUSAT-2                
1 40030U 14033W   21047.52404230  .00000273  00000-0  35132-4 0  9992
2 40030  97.9127 334.8387 0011024 206.8753 153.1894 14.88891394361320
QB50P2                  
1 40032U 14033Y   21048.29015186  .00000270  00000-0  34869-4 0  9990
2 40032  97.9133 335.6089 0011052 205.1807 154.8872 14.88845894361935
POLYITAN-1              
1 40042U 14033AJ  21048.46646913  .00000391  00000-0  47490-4 0  9996
2 40042  97.9368 339.5992 0013908 199.3425 160.7265 14.89115940361962
TIGRISAT                
1 40043U 14033AK  21047.52906513  .00000129  00000-0  26361-4 0  9991
2 40043  97.6835 257.6143 0058514 290.0341  69.4575 14.74478919358018
AISAT                   
1 40054U 14034B   21048.40640027  .00000391  00000-0  61511-4 0  9994
2 40054  98.3035 197.6150 0013749  70.9356 289.3341 14.78285821357793
CANX-4                  
1 40055U 14034C   21048.35036408  .00000093  00000-0  21899-4 0  9995
2 40055  98.2850 186.6612 0015500 102.0088 258.2859 14.75009871357239
CANX-5                  
1 40056U 14034D   21048.35446879  .00000094  00000-0  22034-4 0  9996
2 40056  98.2850 186.6535 0015503 102.2230 258.0715 14.75000748357231
VELOX-I                 
1 40057U 14034E   21048.37726787  .00000279  00000-0  46232-4 0  9999
2 40057  98.3088 198.5799 0012146  83.9087 276.3518 14.78066677357808
METEOR-M 2              
1 40069U 14037A   21048.35438306 -.00000034  00000-0  34180-5 0  9990
2 40069  98.4757  82.2630 0004509 296.9960  63.0758 14.20680954342985
DX1                     
1 40071U 14037C   21048.36390106  .00000089  00000-0  18944-4 0  9997
2 40071  98.4579 246.3806 0009696  74.5913 285.6366 14.81452651357518
UKUBE-1                 
1 40074U 14037F   21048.40201459  .00000210  00000-0  32111-4 0  9995
2 40074  98.4415 257.2294 0005300  59.2565 300.9180 14.84454724358098
FIREBIRD 3              
1 40377U 15003B   21048.11050625  .00004199  00000-0  15795-3 0  9998
2 40377  99.0826 164.3742 0119702 215.6900 143.6287 15.21437247334497
FIREBIRD 4              
1 40378U 15003C   21048.55107883  .00003649  00000-0  13762-3 0  9997
2 40378  99.0830 165.0273 0119816 214.0449 145.3055 15.21478179334566
GRIFEX                  
1 40379U 15003D   21048.54846969  .00001961  00000-0  83799-4 0  9995
2 40379  99.0827 155.3396 0129308 244.1560 114.6286 15.17369254334008
CP10 (EXOCUBE)          
1 40380U 15003E   21048.49726768  .00001186  00000-0  55335-4 0  9999
2 40380  99.0863 150.1747 0134608 261.9934  96.6001 15.15155649333657
DEORBITSAIL             
1 40719U 15032E   21047.63996776  .00000467  00000-0  72823-4 0  9992
2 40719  97.8442 295.8895 0017052 134.7645 225.4956 14.77236975302142
NUDT-PHONESAT           
1 40900U 15049B   21048.52464427  .00002571  00000-0  10421-3 0  9997
2 40900  97.4260  63.4665 0011887 193.4037 323.8277 15.25500787300538
XW-2A                   
1 40903U 15049E   21048.54260350  .00002374  00000-0  53125-4 0  9991
2 40903  97.2545 103.3438 0014542  92.6936  13.3607 15.44394838304289
XW-2C                   
1 40906U 15049H   21048.49200118  .00000659  00000-0  37235-4 0  9992
2 40906  97.4846  52.3754 0013155 240.6332 270.5615 15.16484400299380
XW-2D                   
1 40907U 15049J   21048.51131319  .00000638  00000-0  35875-4 0  9997
2 40907  97.4833  52.1511 0012591 236.5461 279.5852 15.16770533299417
LILACSAT-2              
1 40908U 15049K   21048.49946847  .00000171  00000-0  12971-4 0  9999
2 40908  97.5013  50.1550 0014183 253.4102 258.6260 15.14286289299070
XW-2E                   
1 40909U 15049L   21048.52374315  .00001120  00000-0  56583-4 0  9991
2 40909  97.4664  56.0157 0012231 222.7212 293.8209 15.19106908299723
XW-2F                   
1 40910U 15049M   21048.54334563  .00001191  00000-0  60789-4 0  9997
2 40910  97.4722  55.1092 0013259 222.9980 236.6964 15.18612368299525
XW-2B                   
1 40911U 15049N   21048.49785850  .00000615  00000-0  34808-4 0  9994
2 40911  97.4835  52.8320 0012433 237.8735 224.8570 15.16690455299304
KAITUO 1B               
1 40912U 15049P   21048.54093076  .00001355  00000-0  63950-4 0  9995
2 40912  97.4477  59.4409 0013926 195.7231 263.0836 15.21092599299962
TIANWANG 1C (TW-1C)     
1 40926U 15051B   21048.30538032  .00514945  12367-3  83659-3 0  9996
2 40926  97.0321 110.6803 0004485 213.0986 212.2114 16.03390161305588
TIANWANG 1B (TW-1B)     
1 40927U 15051C   21048.47560153  .00150270  00000-0  60478-3 0  9993
2 40927  97.0480 107.6436 0003008 210.1178 274.9246 15.86021445305277
TIANWANG 1A (TW-1A)     
1 40928U 15051D   21048.54732669  .00003899  00000-0  85716-4 0  9992
2 40928  97.0893  76.3566 0010350  23.8141 128.2489 15.44531385303179
LAPAN-A2                
1 40931U 15052B   21048.45687243  .00000751  00000-0  15527-4 0  9991
2 40931   6.0013  28.1650 0012683 143.5599 216.5516 14.76663413291534
LQSAT                   
1 40958U 15057A   21048.45803906  .00000017  00000-0  10196-4 0  9993
2 40958  97.8212 109.4096 0019610  83.2445 277.0995 14.73155784288573
ATHENOXAT 1             
1 41168U 15077C   21048.40616553  .00002302  00000-0  82801-4 0  9995
2 41168  14.9858  63.2729 0011191 300.1242  97.2204 15.15184062286543
GALASSIA                
1 41170U 15077E   21047.67780303  .00002593  00000-0  96878-4 0  9992
2 41170  14.9896  59.6688 0012250 318.2904  41.6483 15.15445447286508
VELOX-II                
1 41171U 15077F   21047.54792635  .00001745  00000-0  60094-4 0  9999
2 41171  14.9913 113.6787 0008551 195.4876 164.5184 15.12220068285983
CHUBUSAT-2              
1 41338U 16012B   21048.52708249  .00000336  00000-0  19335-4 0  9998
2 41338  31.0020 228.4536 0013614  24.2992 335.8283 15.00441612274571
CHUBUSAT-3              
1 41339U 16012C   21048.56213941  .00000330  00000-0  18744-4 0  9990
2 41339  31.0110 225.5832 0013526  32.0585 328.0877 15.00596215274579
HORYU-4                 
1 41340U 16012D   21048.51959884  .00000528  00000-0  33004-4 0  9995
2 41340  31.0038 210.8722 0013681  61.1474 299.0534 15.01743736274746
